SORCE                   
1 27651U 03004A   26068.43340162  .00003920  00000+0  29573-3 0  9995
2 27651  39.9899 110.5611 0015930  53.0009 307.2241 15.03094555256885
STARLINK-5869           
1 57061U 23088P   26068.49730513  .00000917  00000+0  82897-4 0  9998
2 57061  43.0054 108.2680 0001587 273.8154  86.2507 15.02556227149369
